{"type": "FeatureCollection", "features": [ {"type": "Feature", "properties": {"norad_id": 66436, "name": "STARLINK-35501", "group": "last-30-days", "lat": -40.43613458595985, "lon": 4.153498170156044, "alt_km": 430.58471812617245, "timestamp": "2025-12-08T19:31:47.635549+00:00", "meta": {"OBJECT_NAME": "STARLINK-35501", "OBJECT_ID": "2025-259Q", "EPOCH": "2025-12-08T07:26:14.662752", "MEAN_MOTION": 15.46402329, "ECCENTRICITY": 0.00018785, "INCLINATION": 43.0015, "RA_OF_ASC_NODE": 73.2063, "ARG_OF_PERICENTER": 288.1493, "MEAN_ANOMALY": 71.9161, "EPHEMERIS_TYPE": 0, "CLASSIFICATION_TYPE": "U", "NORAD_CAT_ID": 66436, "ELEMENT_SET_NO": 999, "REV_AT_EPOCH": 548, "BSTAR": -0.0091245188, "MEAN_MOTION_DOT": -0.00437518, "MEAN_MOTION_DDOT": 0}, "tle": {"line1": "1 66436U 25259Q   25342.30989193 -.00437518  00000+0 -91245-2 0  9998", "line2": "2 66436  43.0015  73.2063 0001878 288.1493  71.9161 15.46402329  5488"}}, "geometry": {"type": "Point", "coordinates": [4.153498170156044, -40.43613458595985]}}, {"type": "Feature", "properties": {"norad_id": 66437, "name": "STARLINK-35474", "group": "last-30-days", "lat": -34.08763672076294, "lon": 23.673530650678856, "alt_km": 413.8512085950306, "timestamp": "2025-12-08T19:31:47.635558+00:00", "meta": {"OBJECT_NAME": "STARLINK-35474", "OBJECT_ID": "2025-259R", "EPOCH": "2025-12-07T23:40:04.903104", "MEAN_MOTION": 15.50351883, "ECCENTRICITY": 0.00084662, "INCLINATION": 43.0038, "RA_OF_ASC_NODE": 75.0774, "ARG_OF_PERICENTER": 342.1937, "MEAN_ANOMALY": 17.8626, "EPHEMERIS_TYPE": 0, "CLASSIFICATION_TYPE": "U", "NORAD_CAT_ID": 66437, "ELEMENT_SET_NO": 999, "REV_AT_EPOCH": 543, "BSTAR": 0.0021057773, "MEAN_MOTION_DOT": 0.00124312, "MEAN_MOTION_DDOT": 0}, "tle": {"line1": "1 66437U 25259R   25341.98616786  .00124312  00000+0  21058-2 0  9995", "line2": "2 66437  43.0038  75.0774 0008466 342.1937  17.8626 15.50351883  5430"}}, "geometry": {"type": "Point", "coordinates": [23.673530650678856, -34.08763672076294]}}, {"type": "Feature", "properties": {"norad_id": 66438, "name": "STARLINK-34681", "group": "last-30-days", "lat": -32.24607836026706, "lon": 27.614548006472248, "alt_km": 415.8321633648984, "timestamp": "2025-12-08T19:31:47.635567+00:00", "meta": {"OBJECT_NAME": "STARLINK-34681", "OBJECT_ID": "2025-259S", "EPOCH": "2025-12-07T23:39:13.067424", "MEAN_MOTION": 15.5049474, "ECCENTRICITY": 0.00027185, "INCLINATION": 42.9984, "RA_OF_ASC_NODE": 75.0723, "ARG_OF_PERICENTER": 311.9192, "MEAN_ANOMALY": 48.1436, "EPHEMERIS_TYPE": 0, "CLASSIFICATION_TYPE": "U", "NORAD_CAT_ID": 66438, "ELEMENT_SET_NO": 999, "REV_AT_EPOCH": 532, "BSTAR": 0.0016901486, "MEAN_MOTION_DOT": 0.00099791, "MEAN_MOTION_DDOT": 0}, "tle": {"line1": "1 66438U 25259S   25341.98556791  .00099791  00000+0  16901-2 0  9998", "line2": "2 66438  42.9984  75.0723 0002718 311.9192  48.1436 15.50494740  5328"}}, "geometry": {"type": "Point", "coordinates": [27.614548006472248, -32.24607836026706]}}, {"type": "Feature", "properties": {"norad_id": 66439, "name": "STARLINK-35327", "group": "last-30-days", "lat": -42.73524813001174, "lon": -12.198768592783921, "alt_km": 441.5467580901259, "timestamp": "2025-12-08T19:31:47.635578+00:00", "meta": {"OBJECT_NAME": "STARLINK-35327", "OBJECT_ID": "2025-259T", "EPOCH": "2025-12-08T06:00:02.999808", "MEAN_MOTION": 15.44819251, "ECCENTRICITY": 0.00012849, "INCLINATION": 43.0004, "RA_OF_ASC_NODE": 73.5735, "ARG_OF_PERICENTER": 269.8034, "MEAN_ANOMALY": 109.5163, "EPHEMERIS_TYPE": 0, "CLASSIFICATION_TYPE": "U", "NORAD_CAT_ID": 66439, "ELEMENT_SET_NO": 999, "REV_AT_EPOCH": 555, "BSTAR": -0.047727363, "MEAN_MOTION_DOT": -0.02037562, "MEAN_MOTION_DDOT": 0}, "tle": {"line1": "1 66439U 25259T   25342.25003472 -.02037562  00000+0 -47727-1 0  9994", "line2": "2 66439  43.0004  73.5735 0001284 269.8034 109.5163 15.44819251  5558"}}, "geometry": {"type": "Point", "coordinates": [-12.198768592783921, -42.73524813001174]}}, {"type": "Feature", "properties": {"norad_id": 66440, "name": "STARLINK-35405", "group": "last-30-days", "lat": -31.67271053092396, "lon": 28.769513394521766, "alt_km": 413.094697982644, "timestamp": "2025-12-08T19:31:47.635587+00:00", "meta": {"OBJECT_NAME": "STARLINK-35405", "OBJECT_ID": "2025-259U", "EPOCH": "2025-12-08T07:22:31.709280", "MEAN_MOTION": 15.5025432, "ECCENTRICITY": 0.00089559, "INCLINATION": 43.0019, "RA_OF_ASC_NODE": 73.1858, "ARG_OF_PERICENTER": 293.5691, "MEAN_ANOMALY": 66.4228, "EPHEMERIS_TYPE": 0, "CLASSIFICATION_TYPE": "U", "NORAD_CAT_ID": 66440, "ELEMENT_SET_NO": 999, "REV_AT_EPOCH": 548, "BSTAR": -0.0014583339, "MEAN_MOTION_DOT": -0.00084166, "MEAN_MOTION_DDOT": 0}, "tle": {"line1": "1 66440U 25259U   25342.30731145 -.00084166  00000+0 -14583-2 0  9992", "line2": "2 66440  43.0019  73.1858 0008955 293.5691  66.4228 15.50254320  5485"}}, "geometry": {"type": "Point", "coordinates": [28.769513394521766, -31.67271053092396]}}, {"type": "Feature", "properties": {"norad_id": 66441, "name": "STARLINK-35426", "group": "last-30-days", "lat": -30.083554523224432, "lon": 31.780365071320855, "alt_km": 416.7426142922586, "timestamp": "2025-12-08T19:31:47.635597+00:00", "meta": {"OBJECT_NAME": "STARLINK-35426", "OBJECT_ID": "2025-259V", "EPOCH": "2025-12-08T07:21:58.514400", "MEAN_MOTION": 15.50605801, "ECCENTRICITY": 0.00012739, "INCLINATION": 43.0003, "RA_OF_ASC_NODE": 73.1832, "ARG_OF_PERICENTER": 261.9613, "MEAN_ANOMALY": 98.1103, "EPHEMERIS_TYPE": 0, "CLASSIFICATION_TYPE": "U", "NORAD_CAT_ID": 66441, "ELEMENT_SET_NO": 999, "REV_AT_EPOCH": 548, "BSTAR": 0.0019443289, "MEAN_MOTION_DOT": 0.00115531, "MEAN_MOTION_DDOT": 0}, "tle": {"line1": "1 66441U 25259V   25342.30692725  .00115531  00000+0  19443-2 0  9992", "line2": "2 66441  43.0003  73.1832 0001273 261.9613  98.1103 15.50605801  5488"}}, "geometry": {"type": "Point", "coordinates": [31.780365071320855, -30.083554523224432]}}, {"type": "Feature", "properties": {"norad_id": 66442, "name": "STARLINK-34724", "group": "last-30-days", "lat": -29.088497121455323, "lon": 33.557790253743, "alt_km": 416.69075529064503, "timestamp": "2025-12-08T19:31:47.635606+00:00", "meta": {"OBJECT_NAME": "STARLINK-34724", "OBJECT_ID": "2025-259W", "EPOCH": "2025-12-08T07:21:27.692928", "MEAN_MOTION": 15.50605279, "ECCENTRICITY": 0.00015165, "INCLINATION": 43.0006, "RA_OF_ASC_NODE": 73.1808, "ARG_OF_PERICENTER": 303.6738, "MEAN_ANOMALY": 56.3978, "EPHEMERIS_TYPE": 0, "CLASSIFICATION_TYPE": "U", "NORAD_CAT_ID": 66442, "ELEMENT_SET_NO": 999, "REV_AT_EPOCH": 548, "BSTAR": -0.00064654219, "MEAN_MOTION_DOT": -0.00038122, "MEAN_MOTION_DDOT": 0}, "tle": {"line1": "1 66442U 25259W   25342.30657052 -.00038122  00000+0 -64654-3 0  9994", "line2": "2 66442  43.0006  73.1808 0001516 303.6738  56.3978 15.50605279  5482"}}, "geometry": {"type": "Point", "coordinates": [33.557790253743, -29.088497121455323]}}, {"type": "Feature", "properties": {"norad_id": 66443, "name": "STARLINK-35219", "group": "last-30-days", "lat": -25.664269946898106, "lon": 39.15373497067287, "alt_km": 414.32189796820967, "timestamp": "2025-12-08T19:31:47.635616+00:00", "meta": {"OBJECT_NAME": "STARLINK-35219", "OBJECT_ID": "2025-259X", "EPOCH": "2025-12-06T13:36:31.548384", "MEAN_MOTION": 15.50724046, "ECCENTRICITY": 0.00015671, "INCLINATION": 43.0012, "RA_OF_ASC_NODE": 83.3472, "ARG_OF_PERICENTER": 246.0575, "MEAN_ANOMALY": 114.0122, "EPHEMERIS_TYPE": 0, "CLASSIFICATION_TYPE": "U", "NORAD_CAT_ID": 66443, "ELEMENT_SET_NO": 999, "REV_AT_EPOCH": 510, "BSTAR": 0.0027615281, "MEAN_MOTION_DOT": 0.00166001, "MEAN_MOTION_DDOT": 0}, "tle": {"line1": "1 66443U 25259X   25340.56703181  .00166001  00000+0  27615-2 0  9997", "line2": "2 66443  43.0012  83.3472 0001567 246.0575 114.0122 15.50724046  5101"}}, "geometry": {"type": "Point", "coordinates": [39.15373497067287, -25.664269946898106]}}, {"type": "Feature", "properties": {"norad_id": 66444, "name": "STARLINK-35360", "group": "last-30-days", "lat": -24.77684739625326, "lon": 40.50318475152992, "alt_km": 416.992377748149, "timestamp": "2025-12-08T19:31:47.635626+00:00", "meta": {"OBJECT_NAME": "STARLINK-35360", "OBJECT_ID": "2025-259Y", "EPOCH": "2025-12-08T06:00:02.999808", "MEAN_MOTION": 15.5057439, "ECCENTRICITY": 0.00015991, "INCLINATION": 43.0011, "RA_OF_ASC_NODE": 73.4915, "ARG_OF_PERICENTER": 255.2577, "MEAN_ANOMALY": 156.4543, "EPHEMERIS_TYPE": 0, "CLASSIFICATION_TYPE": "U", "NORAD_CAT_ID": 66444, "ELEMENT_SET_NO": 999, "REV_AT_EPOCH": 555, "BSTAR": -0.00049753214, "MEAN_MOTION_DOT": -0.00029415, "MEAN_MOTION_DDOT": 0}, "tle": {"line1": "1 66444U 25259Y   25342.25003472 -.00029415  00000+0 -49753-3 0  9999", "line2": "2 66444  43.0011  73.4915 0001599 255.2577 156.4543 15.50574390  5553"}}, "geometry": {"type": "Point", "coordinates": [40.50318475152992, -24.77684739625326]}}, {"type": "Feature", "properties": {"norad_id": 66445, "name": "STARLINK-34698", "group": "last-30-days", "lat": -27.00632525697894, "lon": 37.04741907737417, "alt_km": 417.1218968961484, "timestamp": "2025-12-08T19:31:47.635635+00:00", "meta": {"OBJECT_NAME": "STARLINK-34698", "OBJECT_ID": "2025-259Z", "EPOCH": "2025-12-08T06:00:02.999808", "MEAN_MOTION": 15.505835, "ECCENTRICITY": 0.00016423, "INCLINATION": 43.001, "RA_OF_ASC_NODE": 73.5013, "ARG_OF_PERICENTER": 254.9871, "MEAN_ANOMALY": 152.8937, "EPHEMERIS_TYPE": 0, "CLASSIFICATION_TYPE": "U", "NORAD_CAT_ID": 66445, "ELEMENT_SET_NO": 999, "REV_AT_EPOCH": 545, "BSTAR": -0.00084552345, "MEAN_MOTION_DOT": -0.00049639, "MEAN_MOTION_DDOT": 0}, "tle": {"line1": "1 66445U 25259Z   25342.25003472 -.00049639  00000+0 -84552-3 0  9996", "line2": "2 66445  43.0010  73.5013 0001642 254.9871 152.8937 15.50583500  5454"}}, "geometry": {"type": "Point", "coordinates": [37.04741907737417, -27.00632525697894]}}]}